NORAD_CAT_ID,OBJECT_NAME,OBJECT_TYPE,EPOCH,MEAN_MOTION,ECCENTRICITY,INCLINATION,RA_OF_ASC_NODE,ARG_OF_PERICENTER,MEAN_ANOMALY,BSTAR,MEAN_MOTION_DOT,MEAN_MOTION_DDOT,TLE_LINE0,TLE_LINE1,TLE_LINE2,SEMIMAJOR_AXIS,PERIOD,APOGEE,PERIGEE,DECAYED
56469.0,STARLINK-5518,PAYLOAD,2023-06-22 14:19:41,15.69925988,0.0003555,70.0,124.7685,265.8633,94.2156,2.4188e-05,2.697e-05,0.0,0 STARLINK-5518,1 56469U 23064X   23173.59700329  .00002697  00000-0  24188-4 0  9997,2 56469  70.0000 124.7685 0003555 265.8633  94.2156 15.69925988  7100,6737.246,91.724,361.506,356.716,0.0
56469.0,STARLINK-5518,PAYLOAD,2023-06-22 23:30:10,15.69961682,0.0002824,70.0008,123.6953,252.0596,108.0292,9.4485e-05,0.0001118,0.0,0 STARLINK-5518,1 56469U 23064X   23173.97928375  .00011180  00000-0  94485-4 0  9996,2 56469  70.0008 123.6953 0002824 252.0596 108.0292 15.69961682  7160,6737.144,91.722,360.911,357.106,0.0
56469.0,STARLINK-5518,PAYLOAD,2023-06-23 05:37:11,15.6993462,0.0002847,70.0009,122.9795,253.8741,106.2141,3.7604e-05,4.313e-05,0.0,0 STARLINK-5518,1 56469U 23064X   23174.23416239  .00004313  00000-0  37604-4 0  9997,2 56469  70.0009 122.9795 0002847 253.8741 106.2141 15.69934620  7203,6737.221,91.724,361.004,357.168,0.0
56469.0,STARLINK-5518,PAYLOAD,2023-06-24 03:01:43,15.6993044,0.0002877,70.0001,120.472,264.1532,95.9335,5.5596e-05,6.479e-05,0.0,0 STARLINK-5518,1 56469U 23064X   23175.12619843  .00006479  00000-0  55596-4 0  9997,2 56469  70.0001 120.4720 0002877 264.1532  95.9335 15.69930440  7342,6737.233,91.724,361.036,357.16,0.0
56469.0,STARLINK-5518,PAYLOAD,2023-06-24 06:05:14,15.69909087,0.000333,69.998,120.1089,277.2169,82.8648,4.2789e-06,3.01e-06,0.0,0 STARLINK-5518,1 56469U 23064X   23175.25364043  .00000301  00000-0  42789-5 0  9999,2 56469  69.9980 120.1089 0003330 277.2169  82.8648 15.69909087  7363,6737.294,91.725,361.403,356.916,0.0
56469.0,STARLINK-5518,PAYLOAD,2023-06-24 13:43:59,15.69921632,0.000346,69.9993,119.2156,272.4237,87.6562,6.6312e-06,5.85e-06,0.0,0 STARLINK-5518,1 56469U 23064X   23175.57221882  .00000585  00000-0  66312-5 0  9999,2 56469  69.9993 119.2156 0003460 272.4237  87.6562 15.69921632  7412,6737.258,91.724,361.454,356.792,0.0
56469.0,STARLINK-5518,PAYLOAD,2023-06-24 22:54:29,15.69932169,0.0003658,69.9973,118.139,273.9539,86.1238,-2.4904e-05,-3.208e-05,0.0,0 STARLINK-5518,1 56469U 23064X   23175.95451099 -.00003208  00000-0 -24904-4 0  9993,2 56469  69.9973 118.1390 0003658 273.9539  86.1238 15.69932169  7475,6737.228,91.724,361.558,356.629,0.0
56469.0,STARLINK-5518,PAYLOAD,2023-06-25 06:33:14,15.69941204,0.0003566,69.999,117.2448,271.547,88.5317,-4.0149e-06,-6.96e-06,0.0,0 STARLINK-5518,1 56469U 23064X   23176.27308910 -.00000696  00000-0 -40149-5 0  9990,2 56469  69.9990 117.2448 0003566 271.5470  88.5317 15.69941204  7524,6737.202,91.723,361.47,356.665,0.0
56469.0,STARLINK-5518,PAYLOAD,2023-06-25 23:22:32,15.69918532,0.0003888,69.9983,115.2737,270.3733,89.7017,-1.3508e-05,-1.837e-05,0.0,0 STARLINK-5518,1 56469U 23064X   23176.97398684 -.00001837  00000-0 -13508-4 0  9990,2 56469  69.9983 115.2737 0003888 270.3733  89.7017 15.69918532  7631,6737.267,91.725,361.752,356.513,0.0
56469.0,STARLINK-5518,PAYLOAD,2023-06-26 05:29:32,15.69928388,0.0003574,69.9989,114.5585,271.8213,88.2573,1.1859e-05,1.214e-05,0.0,0 STARLINK-5518,1 56469U 23064X   23177.22885134  .00001214  00000-0  11859-4 0  9994,2 56469  69.9989 114.5585 0003574 271.8213  88.2573 15.69928388  7676,6737.239,91.724,361.512,356.696,0.0
56469.0,STARLINK-5518,PAYLOAD,2023-06-27 05:57:34,15.6993231,0.0004205,69.9998,111.6934,269.2376,90.8338,2.9914e-05,3.387e-05,0.0,0 STARLINK-5518,1 56469U 23064X   23178.24831487  .00003387  00000-0  29914-4 0  9993,2 56469  69.9998 111.6934 0004205 269.2376  90.8338 15.69932310  7831,6737.228,91.724,361.926,356.26,0.0
56469.0,STARLINK-5518,PAYLOAD,2023-06-28 03:22:06,15.69926153,0.0003484,69.999,109.1836,263.981,96.0988,3.0777e-05,3.49e-05,0.0,0 STARLINK-5518,1 56469U 23064X   23179.14035233  .00003490  00000-0  30777-4 0  9992,2 56469  69.9990 109.1836 0003484 263.9810  96.0988 15.69926153  7970,6737.245,91.724,361.458,356.763,0.0
56469.0,STARLINK-5518,PAYLOAD,2023-06-29 06:53:39,15.69913483,0.0003488,69.999,105.9591,267.5971,92.4825,-9.5312e-06,-1.358e-05,0.0,0 STARLINK-5518,1 56469U 23064X   23180.28725972 -.00001358  00000-0 -95312-5 0  9995,2 56469  69.9990 105.9591 0003488 267.5971  92.4825 15.69913483  8157,6737.282,91.725,361.496,356.797,0.0
56469.0,STARLINK-5518,PAYLOAD,2023-06-30 11:56:56,15.69919101,0.0003514,69.9979,102.5558,266.574,93.5054,2.5382e-06,9.2e-07,0.0,0 STARLINK-5518,1 56469U 23064X   23181.49787426  .00000092  00000-0  25382-5 0  9993,2 56469  69.9979 102.5558 0003514 266.5740  93.5054 15.69919101  8343,6737.265,91.724,361.498,356.763,0.0
56469.0,STARLINK-5518,PAYLOAD,2023-07-01 04:46:13,15.69907285,0.0003185,69.9997,100.5844,267.0167,93.0665,-2.9299e-05,-3.731e-05,0.0,0 STARLINK-5518,1 56469U 23064X   23182.19876383 -.00003731  00000-0 -29299-4 0  9997,2 56469  69.9997 100.5844 0003185 267.0167  93.0665 15.69907285  8457,6737.299,91.725,361.31,357.018,0.0
56469.0,STARLINK-5518,PAYLOAD,2023-07-01 18:31:58,15.6992261,0.0003807,69.9989,98.9721,267.0888,92.9872,5.2948e-06,4.24e-06,0.0,0 STARLINK-5518,1 56469U 23064X   23182.77220722  .00000424  00000-0  52948-5 0  9993,2 56469  69.9989  98.9721 0003807 267.0888  92.9872 15.69922610  8540,6737.255,91.724,361.685,356.556,0.0
56469.0,STARLINK-5518,PAYLOAD,2023-07-02 03:42:30,15.6990932,0.0003716,69.9985,97.896,264.8768,95.2003,-1.9969e-05,-2.612e-05,0.0,0 STARLINK-5518,1 56469U 23064X   23183.15451468 -.00002612  00000-0 -19969-4 0  9997,2 56469  69.9985  97.8960 0003716 264.8768  95.2003 15.69909320  8602,6737.293,91.725,361.662,356.655,0.0
56469.0,STARLINK-5518,PAYLOAD,2023-07-02 11:21:16,15.69894571,0.0003389,69.9982,97.0019,267.0989,92.9819,-2.3879e-05,-3.079e-05,0.0,0 STARLINK-5518,1 56469U 23064X   23183.47311151 -.00003079  00000-0 -23879-4 0  9999,2 56469  69.9982  97.0019 0003389 267.0989  92.9819 15.69894571  8657,6737.336,91.726,361.484,356.917,0.0
56469.0,STARLINK-5518,PAYLOAD,2023-07-02 22:03:32,15.69919285,0.0002632,70.0009,95.749,264.1108,95.9788,1.1854e-05,1.213e-05,0.0,0 STARLINK-5518,1 56469U 23064X   23183.91912349  .00001213  00000-0  11854-4 0  9990,2 56469  70.0009  95.7490 0002632 264.1108  95.9788 15.69919285  8725,6737.265,91.724,360.903,357.357,0.0
56469.0,STARLINK-5518,PAYLOAD,2023-07-03 11:49:16,15.69956858,0.0004325,69.9971,94.1342,264.8789,95.1913,8.3535e-05,9.858e-05,0.0,0 STARLINK-5518,1 56469U 23064X   23184.49254673  .00009858  00000-0  83535-4 0  9991,2 56469  69.9971  94.1342 0004325 264.8789  95.1913 15.69956858  8811,6737.157,91.722,361.936,356.109,0.0
56469.0,STARLINK-5518,PAYLOAD,2023-07-04 03:06:48,15.69929127,0.000363,69.9988,92.3428,263.3653,96.7129,1.5183e-05,1.614e-05,0.0,0 STARLINK-5518,1 56469U 23064X   23185.12972758  .00001614  00000-0  15183-4 0  9999,2 56469  69.9988  92.3428 0003630 263.3653  96.7129 15.69929127  8912,6737.237,91.724,361.547,356.656,0.0
56469.0,STARLINK-5518,PAYLOAD,2023-07-05 00:31:20,15.69929138,0.0003415,69.9967,89.8358,256.2121,103.8694,8.9624e-06,8.65e-06,0.0,0 STARLINK-5518,1 56469U 23064X   23186.02176512  .00000865  00000-0  89624-5 0  9992,2 56469  69.9967  89.8358 0003415 256.2121 103.8694 15.69929138  9059,6737.237,91.724,361.403,356.801,0.0
56469.0,STARLINK-5518,PAYLOAD,2023-07-05 05:06:36,15.69920256,0.0003387,69.9965,89.2972,264.6729,95.4081,-1.649e-06,-4.11e-06,0.0,0 STARLINK-5518,1 56469U 23064X   23186.21292269 -.00000411  00000-0 -16490-5 0  9991,2 56469  69.9965  89.2972 0003387 264.6729  95.4081 15.69920256  9089,6737.262,91.724,361.409,356.845,0.0
56469.0,STARLINK-5518,PAYLOAD,2023-07-05 11:13:36,15.69935756,0.000412,69.9964,88.5797,260.7486,99.3244,-1.6559e-05,-2.205e-05,0.0,0 STARLINK-5518,1 56469U 23064X   23186.46777796 -.00002205  00000-0 -16559-4 0  9999,2 56469  69.9964  88.5797 0004120 260.7486  99.3244 15.69935756  9128,6737.218,91.723,361.859,356.307,0.0
56469.0,STARLINK-5518,PAYLOAD,2023-07-06 04:02:52,15.69917959,0.0003306,69.999,86.6097,260.8886,99.1935,-1.6933e-06,-4.16e-06,0.0,0 STARLINK-5518,1 56469U 23064X   23187.16866558 -.00000416  00000-0 -16933-5 0  9991,2 56469  69.9990  86.6097 0003306 260.8886  99.1935 15.69917959  9231,6737.269,91.725,361.361,356.906,0.0
56469.0,STARLINK-5518,PAYLOAD,2023-07-06 16:16:53,15.69926247,0.0003864,69.9981,85.1783,268.8445,91.2308,1.7153e-05,1.85e-05,0.0,0 STARLINK-5518,1 56469U 23064X   23187.67839481  .00001850  00000-0  17153-4 0  9997,2 56469  69.9981  85.1783 0003864 268.8445  91.2308 15.69926247  9311,6737.245,91.724,361.713,356.507,0.0
56469.0,STARLINK-5518,PAYLOAD,2023-07-07 18:16:40,15.69924781,0.0003111,70.0004,82.1311,270.3178,89.7661,-8.8777e-07,-3.19e-06,0.0,0 STARLINK-5518,1 56469U 23064X   23188.76158139 -.00000319  00000-0 -88777-6 0  9995,2 56469  70.0004  82.1311 0003111 270.3178  89.7661 15.69924781  9483,6737.249,91.724,361.21,357.018,0.0
56469.0,STARLINK-5518,PAYLOAD,2023-07-08 18:44:43,15.699107,0.0003951,69.9984,79.2637,274.7697,85.3048,-1.9612e-05,-2.57e-05,0.0,0 STARLINK-5518,1 56469U 23064X   23189.78105464 -.00002570  00000-0 -19612-4 0  9992,2 56469  69.9984  79.2637 0003951 274.7697  85.3048 15.69910700  9646,6737.289,91.725,361.816,356.493,0.0
56469.0,STARLINK-5518,PAYLOAD,2023-07-09 02:23:28,15.6991788,0.0003135,70.0001,78.3708,259.1797,100.9045,2.1932e-06,5.1e-07,0.0,0 STARLINK-5518,1 56469U 23064X   23190.09963873  .00000051  00000-0  21932-5 0  9993,2 56469  70.0001  78.3708 0003135 259.1797 100.9045 15.69917880  9692,6737.269,91.725,361.246,357.022,0.0
56469.0,STARLINK-5518,PAYLOAD,2023-07-09 10:02:13,15.69928908,0.0003712,69.9984,77.4745,266.1743,93.9028,2.8557e-05,3.223e-05,0.0,0 STARLINK-5518,1 56469U 23064X   23190.41821431  .00003223  00000-0  28557-4 0  9995,2 56469  69.9984  77.4745 0003712 266.1743  93.9028 15.69928908  9741,6737.237,91.724,361.603,356.602,0.0
